FENGYUN 1C DEB          
1 31655U 99025CBM 24366.11252407  .00016478  00000+0  16189-1 0  9999
2 31655  99.2992 321.8892 0305616 310.6794 107.0076 13.60166045550009
FENGYUN 1C DEB          
1 31656U 99025CBN 24366.65080485  .00024528  00000+0  78459-2 0  9998
2 31656  99.1755 322.4656 0025816 356.5971 177.1498 14.39361457914627
FENGYUN 1C DEB          
1 31657U 99025CBP 24364.70012228  .00013671  00000+0  93248-2 0  9993
2 31657 102.2198 150.9380 0155944 182.5442 177.4930 13.94287619888361
FENGYUN 1C DEB          
1 31658U 99025CBQ 24360.13625418  .00010384  00000+0  63250-2 0  9996
2 31658  98.1626 242.3978 0222196 237.2942 120.6625 13.94750501648930
FENGYUN 1C DEB          
1 31659U 99025CBR 24366.50988185  .00095185  00000+0  48599-2 0  9998
2 31659  98.9876 284.8196 0074062 156.7220 203.7389 15.13899368939605
FENGYUN 1C DEB          
1 31660U 99025CBS 24355.27072746  .00002325  00000+0  94738-3 0  9990
2 31660  98.4913   0.7549 0105699 148.6118 212.1429 14.25332424912975
FENGYUN 1C DEB          
1 31661U 99025CBT 24366.47562971  .00010338  00000+0  45926-2 0  9996
2 31661  98.8790  76.6355 0061823 144.4451 338.5837 14.22111064907853
FENGYUN 1C DEB          
1 31663U 99025CBV 24366.84118609  .00008443  00000+0  95130-3 0  9991
2 31663  98.8737 236.2002 0196997 242.9097 115.1892 14.73834526941804
FENGYUN 1C DEB          
1 31664U 99025CBW 24366.71725436  .00002364  00000+0  12768-2 0  9991
2 31664  98.7327   1.8973 0126712  58.5125 302.8355 14.09530646911253
FENGYUN 1C DEB          
1 31665U 99025CBX 24365.67973743  .00003580  00000+0  28701-2 0  9997
2 31665  98.4764  76.7345 0189087  57.0444 304.8737 13.83277234883900
FENGYUN 1C DEB          
1 31666U 99025CBY 24366.79520609  .00051915  00000+0  10007-1 0  9995
2 31666  98.6458 126.8534 0038845 156.9911 203.3039 14.62767374921787
FENGYUN 1C DEB          
1 31667U 99025CBZ 24358.37284989  .00001142  00000+0  52226-3 0  9997
2 31667  99.1153 192.3016 0051927  21.9756 338.3631 14.22846892509523
FENGYUN 1C DEB          
1 31672U 99025CCE 24363.72108629  .00016213  00000+0  44049-2 0  9992
2 31672  98.9462 164.7741 0121461 306.3347  52.6678 14.43308553598215
FENGYUN 1C DEB          
1 31673U 99025CCF 24366.72003914  .00002232  00000+0  79468-3 0  9997
2 31673  99.3629 167.6642 0126273 324.7348  34.5525 14.31065030599408
FENGYUN 1C DEB          
1 31674U 99025CCG 24363.26987477  .00021838  00000+0  66453-2 0  9991
2 31674  98.9343  14.2959 0028202 253.8027 106.0057 14.41803443595594
FENGYUN 1C DEB          
1 31678U 99025CCL 24366.52328254  .00013726  00000+0  23679-2 0  9999
2 31678  98.7926  94.3882 0283515 353.4187   6.3311 14.45524296918900
FENGYUN 1C DEB          
1 31680U 99025CCN 24366.75214662  .00048750  00000+0  30074-2 0  9996
2 31680  99.8639   7.4902 0108062 327.6431  31.8190 15.04943165949607
FENGYUN 1C DEB          
1 31685U 99025CCT 24364.54470794  .00000292  00000+0  19132-3 0  9998
2 31685  98.7669  32.5736 0017400 131.2173 229.0500 14.09486091906191
FENGYUN 1C DEB          
1 31686U 99025CCU 24366.44901958  .00018857  00000+0  17614-2 0  9999
2 31686  98.1939  72.0772 0312844 106.0221 257.5673 14.63719720927388
FENGYUN 1C DEB          
1 31688U 99025CCW 24366.12041729  .00000318  00000+0  23119-3 0  9998
2 31688  99.0148  58.9615 0075905  24.5780 335.8973 14.02108655904200
FENGYUN 1C DEB          
1 31691U 99025CCZ 24366.47121136  .00013427  00000+0  60026-2 0  9993
2 31691  98.8934  83.2021 0065817 160.2823 200.0920 14.21573003591833
FENGYUN 1C DEB          
1 31692U 99025CDA 24362.76076463  .00017387  00000+0  89714-2 0  9998
2 31692  99.1493 343.1417 0104663 354.1019   5.8912 14.12309308532572
FENGYUN 1C DEB          
1 31695U 99025CDD 24365.46100620  .00026498  00000+0  37416-2 0  9999
2 31695  98.2907  79.0685 0201805 246.1963 111.7966 14.64091515608723
FENGYUN 1C DEB          
1 31714U 99025CDM 24365.56082503  .00064486  00000+0  13583-1 0  9998
2 31714  99.0441 221.5841 0033875 291.5857  98.3637 14.58752116910029
FENGYUN 1C DEB          
1 31715U 99025CDN 24365.67963534  .00011295  00000+0  24225-2 0  9999
2 31715  99.2728 153.0401 0201646  71.3068 290.9892 14.46884544566884
FENGYUN 1C DEB          
1 31716U 99025CDP 24366.72594428  .00009724  00000+0  59719-2 0  9999
2 31716  98.5637 280.3337 0135579 346.6290  42.0078 14.01365303892695
FENGYUN 1C DEB          
1 31720U 99025CDT 24363.17306640  .00009125  00000+0  15174-2 0  9999
2 31720  99.0794 231.2305 0109530 123.0356 238.1424 14.66417501931032
FENGYUN 1C DEB          
1 31721U 99025CDU 24366.18120690  .00003993  00000+0  30235-2 0  9995
2 31721  99.7408 332.2774 0320732 358.9510  12.1308 13.72987950626290
FENGYUN 1C DEB          
1 31724U 99025CDX 24366.80178503  .00040177  00000+0  10870-1 0  9990
2 31724  97.8730  32.4134 0173291 223.9948 134.7341 14.39027376594979
FENGYUN 1C DEB          
1 31725U 99025CDY 24365.99300387  .00006749  00000+0  11023-1 0  9995
2 31725  99.1981 279.0397 0697936  32.7376 331.5043 12.77805055820506
