OBJECT_NAME,OBJECT_ID,EPOCH,MEAN_MOTION,ECCENTRICITY,INCLINATION,RA_OF_ASC_NODE,ARG_OF_PERICENTER,MEAN_ANOMALY,EPHEMERIS_TYPE,CLASSIFICATION_TYPE,NORAD_CAT_ID,ELEMENT_SET_NO,REV_AT_EPOCH,BSTAR,MEAN_MOTION_DOT,MEAN_MOTION_DDOT
FENGYUN 1C DEB,1999-025CBM,2024-12-31T02:42:02.079648,13.60166045,.0305616,99.2992,321.8892,310.6794,107.0076,0,U,31655,999,55000,.16189E-1,.16478E-3,0
FENGYUN 1C DEB,1999-025CBN,2024-12-31T15:37:09.539040,14.39361457,.0025816,99.1755,322.4656,356.5971,177.1498,0,U,31656,999,91462,.78459E-2,.24528E-3,0
FENGYUN 1C DEB,1999-025CBP,2024-12-29T16:48:10.564992,13.94287619,.0155944,102.2198,150.9380,182.5442,177.4930,0,U,31657,999,88836,.93248E-2,.13671E-3,0
FENGYUN 1C DEB,1999-025CBQ,2024-12-25T03:16:12.361152,13.94750501,.0222196,98.1626,242.3978,237.2942,120.6625,0,U,31658,999,64893,.6325E-2,.10384E-3,0
FENGYUN 1C DEB,1999-025CBR,2024-12-31T12:14:13.791840,15.13899368,.0074062,98.9876,284.8196,156.7220,203.7389,0,U,31659,999,93960,.48599E-2,.95185E-3,0
FENGYUN 1C DEB,1999-025CBS,2024-12-20T06:29:50.852544,14.25332424,.0105699,98.4913,0.7549,148.6118,212.1429,0,U,31660,999,91297,.94738E-3,.2325E-4,0
FENGYUN 1C DEB,1999-025CBT,2024-12-31T11:24:54.406944,14.22111064,.0061823,98.8790,76.6355,144.4451,338.5837,0,U,31661,999,90785,.45926E-2,.10338E-3,0
FENGYUN 1C DEB,1999-025CBV,2024-12-31T20:11:18.478176,14.73834526,.0196997,98.8737,236.2002,242.9097,115.1892,0,U,31663,999,94180,.9513E-3,.8443E-4,0
FENGYUN 1C DEB,1999-025CBW,2024-12-31T17:12:50.776704,14.09530646,.0126712,98.7327,1.8973,58.5125,302.8355,0,U,31664,999,91125,.12768E-2,.2364E-4,0
FENGYUN 1C DEB,1999-025CBX,2024-12-30T16:18:49.313952,13.83277234,.0189087,98.4764,76.7345,57.0444,304.8737,0,U,31665,999,88390,.28701E-2,.358E-4,0
FENGYUN 1C DEB,1999-025CBY,2024-12-31T19:05:05.806176,14.62767374,.0038845,98.6458,126.8534,156.9911,203.3039,0,U,31666,999,92178,.10007E-1,.51915E-3,0
FENGYUN 1C DEB,1999-025CBZ,2024-12-23T08:56:54.230496,14.22846892,.0051927,99.1153,192.3016,21.9756,338.3631,0,U,31667,999,50952,.52226E-3,.1142E-4,0
FENGYUN 1C DEB,1999-025CCE,2024-12-28T17:18:21.855456,14.43308553,.0121461,98.9462,164.7741,306.3347,52.6678,0,U,31672,999,59821,.44049E-2,.16213E-3,0
FENGYUN 1C DEB,1999-025CCF,2024-12-31T17:16:51.381696,14.31065030,.0126273,99.3629,167.6642,324.7348,34.5525,0,U,31673,999,59940,.79468E-3,.2232E-4,0
FENGYUN 1C DEB,1999-025CCG,2024-12-28T06:28:37.180128,14.41803443,.0028202,98.9343,14.2959,253.8027,106.0057,0,U,31674,999,59559,.66453E-2,.21838E-3,0
FENGYUN 1C DEB,1999-025CCL,2024-12-31T12:33:31.611456,14.45524296,.0283515,98.7926,94.3882,353.4187,6.3311,0,U,31678,999,91890,.23679E-2,.13726E-3,0
FENGYUN 1C DEB,1999-025CCN,2024-12-31T18:03:05.467968,15.04943165,.0108062,99.8639,7.4902,327.6431,31.8190,0,U,31680,999,94960,.30074E-2,.4875E-3,0
FENGYUN 1C DEB,1999-025CCT,2024-12-29T13:04:22.766016,14.09486091,.00174,98.7669,32.5736,131.2173,229.0500,0,U,31685,999,90619,.19132E-3,.292E-5,0
FENGYUN 1C DEB,1999-025CCU,2024-12-31T10:46:35.291712,14.63719720,.0312844,98.1939,72.0772,106.0221,257.5673,0,U,31686,999,92738,.17614E-2,.18857E-3,0
FENGYUN 1C DEB,1999-025CCW,2024-12-31T02:53:24.053856,14.02108655,.0075905,99.0148,58.9615,24.5780,335.8973,0,U,31688,999,90420,.23119E-3,.318E-5,0
FENGYUN 1C DEB,1999-025CCZ,2024-12-31T11:18:32.661504,14.21573003,.0065817,98.8934,83.2021,160.2823,200.0920,0,U,31691,999,59183,.60026E-2,.13427E-3,0
FENGYUN 1C DEB,1999-025CDA,2024-12-27T18:15:30.064032,14.12309308,.0104663,99.1493,343.1417,354.1019,5.8912,0,U,31692,999,53257,.89714E-2,.17387E-3,0
FENGYUN 1C DEB,1999-025CDD,2024-12-30T11:03:50.935680,14.64091515,.0201805,98.2907,79.0685,246.1963,111.7966,0,U,31695,999,60872,.37416E-2,.26498E-3,0
FENGYUN 1C DEB,1999-025CDM,2024-12-30T13:27:35.282592,14.58752116,.0033875,99.0441,221.5841,291.5857,98.3637,0,U,31714,999,91002,.13583E-1,.64486E-3,0
FENGYUN 1C DEB,1999-025CDN,2024-12-30T16:18:40.493376,14.46884544,.0201646,99.2728,153.0401,71.3068,290.9892,0,U,31715,999,56688,.24225E-2,.11295E-3,0
FENGYUN 1C DEB,1999-025CDP,2024-12-31T17:25:21.585792,14.01365303,.0135579,98.5637,280.3337,346.6290,42.0078,0,U,31716,999,89269,.59719E-2,.9724E-4,0
FENGYUN 1C DEB,1999-025CDT,2024-12-28T04:09:12.936960,14.66417501,.010953,99.0794,231.2305,123.0356,238.1424,0,U,31720,999,93103,.15174E-2,.9125E-4,0
FENGYUN 1C DEB,1999-025CDU,2024-12-31T04:20:56.276160,13.72987950,.0320732,99.7408,332.2774,358.9510,12.1308,0,U,31721,999,62629,.30235E-2,.3993E-4,0
FENGYUN 1C DEB,1999-025CDX,2024-12-31T19:14:34.226592,14.39027376,.0173291,97.8730,32.4134,223.9948,134.7341,0,U,31724,999,59497,.1087E-1,.40177E-3,0
FENGYUN 1C DEB,1999-025CDY,2024-12-30T23:49:55.534368,12.77805055,.0697936,99.1981,279.0397,32.7376,331.5043,0,U,31725,999,82050,.11023E-1,.6749E-4,0
